{"type": "FeatureCollection", "features": [{"type": "Feature", "id": "node/245716231", "geometry": {"type": "Point", "coordinates": [92.7179947, 23.7277631]}, "properties": {"place_id": "node/245716231", "osm_id": "node/245716231", "name": "Aizawl", "place_type": "city", "latitude": 23.7277631, "longitude": 92.7179947, "source": "OpenStreetMap", "population": "291822", "nearest_node": "9853036665", "snap_distance_m": 24.73}}, {"type": "Feature", "id": "node/245716313", "geometry": {"type": "Point", "coordinates": [92.6287719, 23.8314147]}, "properties": {"place_id": "node/245716313", "osm_id": "node/245716313", "name": "Lengpui", "place_type": "town", "latitude": 23.8314147, "longitude": 92.6287719, "source": "OpenStreetMap", "nearest_node": "2656255115", "snap_distance_m": 63.2}}, {"type": "Feature", "id": "node/2017884064", "geometry": {"type": "Point", "coordinates": [92.652259, 23.810344]}, "properties": {"place_id": "node/2017884064", "osm_id": "node/2017884064", "name": "Sairang", "place_type": "town", "latitude": 23.810344, "longitude": 92.652259, "source": "OpenStreetMap", "nearest_node": "9832268205", "snap_distance_m": 35.85}}, {"type": "Feature", "id": "node/2083680073", "geometry": {"type": "Point", "coordinates": [92.6065561, 23.654638]}, "properties": {"place_id": "node/2083680073", "osm_id": "node/2083680073", "name": "Lallen", "place_type": "village", "latitude": 23.654638, "longitude": 92.6065561, "source": "OpenStreetMap", "nearest_node": "10561724971", "snap_distance_m": 2836.41}}, {"type": "Feature", "id": "node/2455230056", "geometry": {"type": "Point", "coordinates": [92.8492349, 23.7777768]}, "properties": {"place_id": "node/2455230056", "osm_id": "node/2455230056", "name": null, "place_type": "village", "latitude": 23.7777768, "longitude": 92.8492349, "source": "OpenStreetMap", "nearest_node": "9751285275", "snap_distance_m": 10.94}}, {"type": "Feature", "id": "node/2455230589", "geometry": {"type": "Point", "coordinates": [92.8351672, 23.8025515]}, "properties": {"place_id": "node/2455230589", "osm_id": "node/2455230589", "name": null, "place_type": "village", "latitude": 23.8025515, "longitude": 92.8351672, "source": "OpenStreetMap", "nearest_node": "2455230592", "snap_distance_m": 13.71}}, {"type": "Feature", "id": "node/6202256842", "geometry": {"type": "Point", "coordinates": [92.7275973, 23.7816239]}, "properties": {"place_id": "node/6202256842", "osm_id": "node/6202256842", "name": "Durtlang", "place_type": "village", "latitude": 23.7816239, "longitude": 92.7275973, "source": "OpenStreetMap", "nearest_node": "3682722854", "snap_distance_m": 12.88}}, {"type": "Feature", "id": "node/6824936286", "geometry": {"type": "Point", "coordinates": [92.6069355, 23.6992949]}, "properties": {"place_id": "node/6824936286", "osm_id": "node/6824936286", "name": "Reiek", "place_type": "village", "latitude": 23.6992949, "longitude": 92.6069355, "source": "OpenStreetMap", "nearest_node": "10561486459", "snap_distance_m": 18.35}}, {"type": "Feature", "id": "node/8512871396", "geometry": {"type": "Point", "coordinates": [92.7186227, 23.613375]}, "properties": {"place_id": "node/8512871396", "osm_id": "node/8512871396", "name": "Muallungthu", "place_type": "village", "latitude": 23.613375, "longitude": 92.7186227, "source": "OpenStreetMap", "nearest_node": "3887834669", "snap_distance_m": 40.08}}, {"type": "Feature", "id": "node/12249036271", "geometry": {"type": "Point", "coordinates": [92.7987188, 23.7217409]}, "properties": {"place_id": "node/12249036271", "osm_id": "node/12249036271", "name": "Tuirial", "place_type": "hamlet", "latitude": 23.7217409, "longitude": 92.7987188, "source": "OpenStreetMap", "nearest_node": "9725903321", "snap_distance_m": 12.38}}, {"type": "Feature", "id": "node/12249036272", "geometry": {"type": "Point", "coordinates": [92.8002772, 23.7354056]}, "properties": {"place_id": "node/12249036272", "osm_id": "node/12249036272", "name": "Tuirial", "place_type": "hamlet", "latitude": 23.7354056, "longitude": 92.8002772, "source": "OpenStreetMap", "nearest_node": "9725977811", "snap_distance_m": 22.26}}, {"type": "Feature", "id": "node/12249036273", "geometry": {"type": "Point", "coordinates": [92.8299773, 23.8482209]}, "properties": {"place_id": "node/12249036273", "osm_id": "node/12249036273", "name": "Tuirini", "place_type": "hamlet", "latitude": 23.8482209, "longitude": 92.8299773, "source": "OpenStreetMap", "nearest_node": "2455231843", "snap_distance_m": 16.39}}, {"type": "Feature", "id": "node/13310666607", "geometry": {"type": "Point", "coordinates": [92.7881643, 23.6243307]}, "properties": {"place_id": "node/13310666607", "osm_id": "node/13310666607", "name": null, "place_type": "hamlet", "latitude": 23.6243307, "longitude": 92.7881643, "source": "OpenStreetMap", "nearest_node": "9794079637", "snap_distance_m": 11.0}}, {"type": "Feature", "id": "node/13310792177", "geometry": {"type": "Point", "coordinates": [92.8130901, 23.6058348]}, "properties": {"place_id": "node/13310792177", "osm_id": "node/13310792177", "name": null, "place_type": "village", "latitude": 23.6058348, "longitude": 92.8130901, "source": "OpenStreetMap", "nearest_node": "9803447930", "snap_distance_m": 12.78}}], "metadata": {"source": "OpenStreetMap contributors via Geofabrik", "license": "ODbL 1.0", "processed_at": "2026-09-02T15:06:22.431449+00:00", "downloaded_at": "2026-09-02T15:00:53.085482+00:00", "dataset_version": "2026-09-01T20:20:50Z", "source_url": "https://download.geofabrik.de/asia/india/north-eastern-zone-latest.osm.pbf", "bbox": [92.6, 23.6, 92.85, 23.85], "crs": "EPSG:4326", "layer": "settlements"}}