{"type": "FeatureCollection", "features": [{"type": "Feature", "id": "node/6909859240", "geometry": {"type": "Point", "coordinates": [92.6329817, 23.839704]}, "properties": {"facility_id": "node/6909859240", "osm_id": "node/6909859240", "name": "PHC, Lengpui", "facility_type": "clinic", "latitude": 23.839704, "longitude": 92.6329817, "source": "OpenStreetMap", "nearest_node": "2017884002", "snap_distance_m": 47.61}}, {"type": "Feature", "id": "node/6909859245", "geometry": {"type": "Point", "coordinates": [92.6547905, 23.812345]}, "properties": {"facility_id": "node/6909859245", "osm_id": "node/6909859245", "name": "PHC, Sairang", "facility_type": "clinic", "latitude": 23.812345, "longitude": 92.6547905, "source": "OpenStreetMap", "nearest_node": "9835102692", "snap_distance_m": 31.84}}, {"type": "Feature", "id": "node/6909859294", "geometry": {"type": "Point", "coordinates": [92.7310816, 23.7555439]}, "properties": {"facility_id": "node/6909859294", "osm_id": "node/6909859294", "name": "Greenwood Hospital", "facility_type": "hospital", "latitude": 23.7555439, "longitude": 92.7310816, "source": "OpenStreetMap", "nearest_node": "9813583288", "snap_distance_m": 18.83}}, {"type": "Feature", "id": "node/6909859524", "geometry": {"type": "Point", "coordinates": [92.7195313, 23.7093053]}, "properties": {"facility_id": "node/6909859524", "osm_id": "node/6909859524", "name": "Alpha Hospital", "facility_type": "hospital", "latitude": 23.7093053, "longitude": 92.7195313, "source": "OpenStreetMap", "nearest_node": "9840558000", "snap_distance_m": 14.04}}, {"type": "Feature", "id": "node/6909859549", "geometry": {"type": "Point", "coordinates": [92.7224247, 23.7489767]}, "properties": {"facility_id": "node/6909859549", "osm_id": "node/6909859549", "name": "Nazareth Hospitals", "facility_type": "hospital", "latitude": 23.7489767, "longitude": 92.7224247, "source": "OpenStreetMap", "nearest_node": "2029114229", "snap_distance_m": 18.78}}, {"type": "Feature", "id": "node/6909859597", "geometry": {"type": "Point", "coordinates": [92.7281633, 23.6242176]}, "properties": {"facility_id": "node/6909859597", "osm_id": "node/6909859597", "name": "State Referral Hospital,Falkawn", "facility_type": "hospital", "latitude": 23.6242176, "longitude": 92.7281633, "source": "OpenStreetMap", "nearest_node": "9789664388", "snap_distance_m": 32.26}}, {"type": "Feature", "id": "node/6911271636", "geometry": {"type": "Point", "coordinates": [92.726619, 23.7504614]}, "properties": {"facility_id": "node/6911271636", "osm_id": "node/6911271636", "name": "Bethesda Hospital", "facility_type": "hospital", "latitude": 23.7504614, "longitude": 92.726619, "source": "OpenStreetMap", "nearest_node": "2462717879", "snap_distance_m": 13.85}}, {"type": "Feature", "id": "node/7127376532", "geometry": {"type": "Point", "coordinates": [92.6551256, 23.811726]}, "properties": {"facility_id": "node/7127376532", "osm_id": "node/7127376532", "name": "Sairang,Primary Health Centre", "facility_type": "clinic", "latitude": 23.811726, "longitude": 92.6551256, "source": "OpenStreetMap", "nearest_node": "9835102699", "snap_distance_m": 29.14}}, {"type": "Feature", "id": "node/7127376539", "geometry": {"type": "Point", "coordinates": [92.7159388, 23.7334106]}, "properties": {"facility_id": "node/7127376539", "osm_id": "node/7127376539", "name": "Vaivenga Hospital", "facility_type": "hospital", "latitude": 23.7334106, "longitude": 92.7159388, "source": "OpenStreetMap", "nearest_node": "2030624096", "snap_distance_m": 6.23}}, {"type": "Feature", "id": "node/7127376542", "geometry": {"type": "Point", "coordinates": [92.7175467, 23.7189081]}, "properties": {"facility_id": "node/7127376542", "osm_id": "node/7127376542", "name": "Aizawl Hospital & Research Centre", "facility_type": "hospital", "latitude": 23.7189081, "longitude": 92.7175467, "source": "OpenStreetMap", "nearest_node": "9860192899", "snap_distance_m": 26.38}}, {"type": "Feature", "id": "node/7127376544", "geometry": {"type": "Point", "coordinates": [92.7154669, 23.7085438]}, "properties": {"facility_id": "node/7127376544", "osm_id": "node/7127376544", "name": "Kulikawn Hospital", "facility_type": "hospital", "latitude": 23.7085438, "longitude": 92.7154669, "source": "OpenStreetMap", "nearest_node": "9838051327", "snap_distance_m": 26.9}}, {"type": "Feature", "id": "node/7127376552", "geometry": {"type": "Point", "coordinates": [92.7193766, 23.7110935]}, "properties": {"facility_id": "node/7127376552", "osm_id": "node/7127376552", "name": "B.N. Hospital,Kulikawn", "facility_type": "hospital", "latitude": 23.7110935, "longitude": 92.7193766, "source": "OpenStreetMap", "nearest_node": "3887836428", "snap_distance_m": 22.87}}, {"type": "Feature", "id": "node/7621733288", "geometry": {"type": "Point", "coordinates": [92.723445, 23.744316]}, "properties": {"facility_id": "node/7621733288", "osm_id": "node/7621733288", "name": "LRM Hospital", "facility_type": "hospital", "latitude": 23.744316, "longitude": 92.723445, "source": "OpenStreetMap", "nearest_node": "9843530890", "snap_distance_m": 8.44}}, {"type": "Feature", "id": "node/7621733295", "geometry": {"type": "Point", "coordinates": [92.7171226, 23.7297486]}, "properties": {"facility_id": "node/7621733295", "osm_id": "node/7621733295", "name": "Eye Care Centre", "facility_type": "clinic", "latitude": 23.7297486, "longitude": 92.7171226, "source": "OpenStreetMap", "nearest_node": "1683573081", "snap_distance_m": 17.13}}, {"type": "Feature", "id": "node/7621733298", "geometry": {"type": "Point", "coordinates": [92.717955, 23.7311693]}, "properties": {"facility_id": "node/7621733298", "osm_id": "node/7621733298", "name": "Rosewood Hospital", "facility_type": "hospital", "latitude": 23.7311693, "longitude": 92.717955, "source": "OpenStreetMap", "nearest_node": "2433001148", "snap_distance_m": 10.02}}, {"type": "Feature", "id": "node/7621733299", "geometry": {"type": "Point", "coordinates": [92.7249518, 23.68029]}, "properties": {"facility_id": "node/7621733299", "osm_id": "node/7621733299", "name": "Zotres Hospital", "facility_type": "hospital", "latitude": 23.68029, "longitude": 92.7249518, "source": "OpenStreetMap", "nearest_node": "3887835554", "snap_distance_m": 24.37}}, {"type": "Feature", "id": "node/7621733301", "geometry": {"type": "Point", "coordinates": [92.7164176, 23.716618]}, "properties": {"facility_id": "node/7621733301", "osm_id": "node/7621733301", "name": "City Hospital", "facility_type": "hospital", "latitude": 23.716618, "longitude": 92.7164176, "source": "OpenStreetMap", "nearest_node": "9803469419", "snap_distance_m": 35.25}}, {"type": "Feature", "id": "node/8195862931", "geometry": {"type": "Point", "coordinates": [92.7295691, 23.7923544]}, "properties": {"facility_id": "node/8195862931", "osm_id": "node/8195862931", "name": "Government Hospital, Durtlang North", "facility_type": "hospital", "latitude": 23.7923544, "longitude": 92.7295691, "source": "OpenStreetMap", "nearest_node": "9794438620", "snap_distance_m": 20.01}}, {"type": "Feature", "id": "node/10807335377", "geometry": {"type": "Point", "coordinates": [92.7110831, 23.7381258]}, "properties": {"facility_id": "node/10807335377", "osm_id": "node/10807335377", "name": "Vaivakawn Police Station", "facility_type": "police", "latitude": 23.7381258, "longitude": 92.7110831, "source": "OpenStreetMap", "nearest_node": "2359460134", "snap_distance_m": 12.06}}, {"type": "Feature", "id": "node/10807355550", "geometry": {"type": "Point", "coordinates": [92.7165369, 23.7332329]}, "properties": {"facility_id": "node/10807355550", "osm_id": "node/10807355550", "name": "Aizwal Police Station", "facility_type": "police", "latitude": 23.7332329, "longitude": 92.7165369, "source": "OpenStreetMap", "nearest_node": "2030624167", "snap_distance_m": 23.37}}, {"type": "Feature", "id": "node/10807355551", "geometry": {"type": "Point", "coordinates": [92.7281, 23.7534536]}, "properties": {"facility_id": "node/10807355551", "osm_id": "node/10807355551", "name": "Bawngkawn Police Station", "facility_type": "police", "latitude": 23.7534536, "longitude": 92.7281, "source": "OpenStreetMap", "nearest_node": "9677030580", "snap_distance_m": 17.64}}, {"type": "Feature", "id": "node/10807376498", "geometry": {"type": "Point", "coordinates": [92.7195803, 23.7115624]}, "properties": {"facility_id": "node/10807376498", "osm_id": "node/10807376498", "name": "Kulikawn Police Station", "facility_type": "police", "latitude": 23.7115624, "longitude": 92.7195803, "source": "OpenStreetMap", "nearest_node": "3887836439", "snap_distance_m": 3.6}}, {"type": "Feature", "id": "node/10807391978", "geometry": {"type": "Point", "coordinates": [92.6976527, 23.7359677]}, "properties": {"facility_id": "node/10807391978", "osm_id": "node/10807391978", "name": "Zonuam Police Out Post", "facility_type": "police", "latitude": 23.7359677, "longitude": 92.6976527, "source": "OpenStreetMap", "nearest_node": "9824685805", "snap_distance_m": 10.09}}, {"type": "Feature", "id": "node/10807403757", "geometry": {"type": "Point", "coordinates": [92.6539597, 23.8123048]}, "properties": {"facility_id": "node/10807403757", "osm_id": "node/10807403757", "name": "Sairang Police Station", "facility_type": "police", "latitude": 23.8123048, "longitude": 92.6539597, "source": "OpenStreetMap", "nearest_node": "3884467155", "snap_distance_m": 30.41}}, {"type": "Feature", "id": "node/11378893230", "geometry": {"type": "Point", "coordinates": [92.7078441, 23.7311933]}, "properties": {"facility_id": "node/11378893230", "osm_id": "node/11378893230", "name": "Ebenezar Hospital", "facility_type": "hospital", "latitude": 23.7311933, "longitude": 92.7078441, "source": "OpenStreetMap", "nearest_node": "9859958666", "snap_distance_m": 11.23}}, {"type": "Feature", "id": "way/487812363", "geometry": {"type": "Point", "coordinates": [92.71660981748667, 23.7319548]}, "properties": {"facility_id": "way/487812363", "osm_id": "way/487812363", "name": "Aizawl Civil Hospital", "facility_type": "hospital", "latitude": 23.7319548, "longitude": 92.71660981748667, "source": "OpenStreetMap", "nearest_node": "9859958635", "snap_distance_m": 28.13}}, {"type": "Feature", "id": "way/641625290", "geometry": {"type": "Point", "coordinates": [92.70797312126993, 23.7313245]}, "properties": {"facility_id": "way/641625290", "osm_id": "way/641625290", "name": "Ebenezar Hospital Area", "facility_type": "hospital", "latitude": 23.7313245, "longitude": 92.70797312126993, "source": "OpenStreetMap", "nearest_node": "12147244110", "snap_distance_m": 6.17}}, {"type": "Feature", "id": "way/662506631", "geometry": {"type": "Point", "coordinates": [92.70935931474149, 23.736652900000003]}, "properties": {"facility_id": "way/662506631", "osm_id": "way/662506631", "name": "Aizawl Adventist Hospital", "facility_type": "hospital", "latitude": 23.736652900000003, "longitude": 92.70935931474149, "source": "OpenStreetMap", "nearest_node": "9859632143", "snap_distance_m": 14.88}}, {"type": "Feature", "id": "way/1188878378", "geometry": {"type": "Point", "coordinates": [92.7252174074284, 23.68052015]}, "properties": {"facility_id": "way/1188878378", "osm_id": "way/1188878378", "name": "Trinity Hospital", "facility_type": "hospital", "latitude": 23.68052015, "longitude": 92.7252174074284, "source": "OpenStreetMap", "nearest_node": "9816234219", "snap_distance_m": 24.68}}], "metadata": {"source": "OpenStreetMap contributors via Geofabrik", "license": "ODbL 1.0", "processed_at": "2026-09-02T15:06:22.431449+00:00", "downloaded_at": "2026-09-02T15:00:53.085482+00:00", "dataset_version": "2026-09-01T20:20:50Z", "source_url": "https://download.geofabrik.de/asia/india/north-eastern-zone-latest.osm.pbf", "bbox": [92.6, 23.6, 92.85, 23.85], "crs": "EPSG:4326", "layer": "facilities"}}